ONEWEB-0128             
1 47274U 20100S   25045.49428808  .00000107  00000+0  26335-3 0  9995
2 47274  87.8832  87.7867 0002159 100.5353 259.6019 13.12441280200773
ONEWEB-0129             
1 47275U 20100T   25045.47321106  .00000313  00000+0  83486-3 0  9996
2 47275  87.8825  87.7427 0002721  72.6048 287.5377 13.12442879200708
ONEWEB-0130             
1 47276U 20100U   25045.57702901  .00000135  00000+0  34072-3 0  9993
2 47276  87.8822  87.7256 0002069  98.4780 261.6583 13.12440989200689
ONEWEB-0131             
1 47277U 20100V   25045.49753330  .00000048  00000+0  98103-4 0  9996
2 47277  87.8827  87.7633 0002010 100.4182 259.7173 13.12441110200714
ONEWEB-0132             
1 47278U 20100W   25045.37425463 -.00000621  00000+0 -17628-2 0  9997
2 47278  87.8828  87.7900 0002149 103.3128 256.8241 13.12441062200594
ONEWEB-0133             
1 47279U 20100X   25045.39048154  .00000147  00000+0  37273-3 0  9998
2 47279  87.8818  87.7709 0001980  98.2708 261.8645 13.12443694200754
ONEWEB-0134             
1 47280U 20100Y   25045.51212726 -.00000218  00000+0 -64062-3 0  9999
2 47280  87.8819  87.7324 0002228  96.6125 263.5257 13.12439821200745
ONEWEB-0135             
1 47281U 20100Z   25045.55918017  .00000462  00000+0  12488-2 0  9993
2 47281  87.8822  87.7524 0002379 100.3363 259.8033 13.12442019200772
